[{"OBJECT_NAME":"VSP RF C1","OBJECT_ID":"2024-043AQ","EPOCH":"2026-03-09T21:56:05.358624","MEAN_MOTION":15.29409663,"ECCENTRICITY":0.00093965,"INCLINATION":97.5441,"RA_OF_ASC_NODE":205.1792,"ARG_OF_PERICENTER":219.6172,"MEAN_ANOMALY":140.4382,"EPHEMERIS_TYPE":0,"CLASSIFICATION_TYPE":"U","NORAD_CAT_ID":59136,"ELEMENT_SET_NO":999,"REV_AT_EPOCH":11190,"BSTAR":0.00026222052,"MEAN_MOTION_DOT":7.409e-5,"MEAN_MOTION_DDOT":0},{"OBJECT_NAME":"STARLINK-34855","OBJECT_ID":"2025-192N","EPOCH":"2026-03-09T17:20:13.620768","MEAN_MOTION":15.30192662,"ECCENTRICITY":0.00014519,"INCLINATION":53.1598,"RA_OF_ASC_NODE":232.5949,"ARG_OF_PERICENTER":55.9663,"MEAN_ANOMALY":304.1475,"EPHEMERIS_TYPE":0,"CLASSIFICATION_TYPE":"U","NORAD_CAT_ID":65416,"ELEMENT_SET_NO":999,"REV_AT_EPOCH":2938,"BSTAR":0.0010857961,"MEAN_MOTION_DOT":0.0003193,"MEAN_MOTION_DDOT":0}]
